[{"Trackingid":1000, "FullName":"Ujjawal", "Mobile":"9238592655", "State":"", "City":"", "PinCode":"", "Address":"", "Laundry":"", "Cloths":"", "Weight":"", "Descriptions":"", "Issued":"", "Delivery":""},
 {"Trackingid":1001, "FullName":"Ujjawal Singh", "Mobile":"9608734736", "State":"Bihar", "City":"Sasaram", "PinCode":"752054", "Address":"Gaurakshni Sasaram", "Laundry":"Woolean Cloths", "Cloths":"6", "Weight":"9", "Descriptions":"Please be careful", "Issued":"2022-12-19", "Delivery":"2022-12-31"},
 {"Trackingid":1003, "FullName":"Ujjawal Singh", "Mobile":"9608734736", "State":"Bihar", "City":"Sasaram", "PinCode":"752054", "Address":"Gaurakshni Sasaram", "Laundry":"Woolean Cloths", "Cloths":"3", "Weight":"5", "Descriptions":"Please be careful", "Issued":"2022-12-21", "Delivery":"2022-12-31"},
 {"Trackingid":1010, "FullName":"Ujjawal Singh", "Mobile":"9608734736", "State":"Bihar", "City":"Sasaram", "PinCode":"752054", "Address":"Gaurakshni Sasaram", "Laundry":"Woolean Cloths", "Cloths":"6", "Weight":"1", "Descriptions":"Please be careful", "Issued":"2022-12-20", "Delivery":"2022-12-31"},
 {"Trackingid":1011, "FullName":"Ujjawal Singh", "Mobile":"9608734736", "State":"Bihar", "City":"Sasaram", "PinCode":"752054", "Address":"Gaurakshni Sasaram", "Laundry":"Woolean Cloths", "Cloths":"6", "Weight":"1", "Descriptions":"Please be careful", "Issued":"2022-12-20", "Delivery":"2022-12-31"},
 {"Trackingid":1012, "FullName":"Ujjawal Singh", "Mobile":"9608734736", "State":"Bihar", "City":"Sasaram", "PinCode":"752054", "Address":"Gaurakshni Sasaram", "Laundry":"Woolean Cloths", "Cloths":"5", "Weight":"1", "Descriptions":"Please be careful", "Issued":"2022-12-30", "Delivery":"2023-01-07"},
 {"Trackingid":1013, "FullName":"Ujjawal Singh", "Mobile":"9608734736", "State":"Bihar", "City":"Sasaram", "PinCode":"752054", "Address":"Gaurakshni Sasaram", "Laundry":"Woolean Cloths", "Cloths":"5", "Weight":"1", "Descriptions":"Please be careful", "Issued":"2022-12-30", "Delivery":"2023-01-07"},
 {"Trackingid":1014, "FullName":"Ujjawal Singh", "Mobile":"9608734736", "State":"Bihar", "City":"Sasaram", "PinCode":"821115", "Address":"Gaurakshni Sasaram", "Laundry":"Woolean Cloths", "Cloths":"44", "Weight":"3", "Descriptions":"Please be careful", "Issued":"2022-12-19", "Delivery":"2023-01-04"},
 {"Trackingid":1015, "FullName":"Raj Kumar", "Mobile":"9631341874", "State":"Odisha", "City":"Bhubhaneshwar", "PinCode":"752054", "Address":"Kendriya Vihar Apartment", "Laundry":"Cotton Cloth", "Cloths":"8", "Weight":"2", "Descriptions":"Ache se Bhiya Saaf Kijiye ga ", "Issued":"2022-12-20", "Delivery":"2022-12-31"},
 {"Trackingid":1016, "FullName":"Dhruv", "Mobile":"1234567890", "State":"Bihar", "City":"Sasaram", "PinCode":"821115", "Address":"Gaurakshni Sasaram", "Laundry":"Cotton Cloth", "Cloths":"10", "Weight":"1", "Descriptions":"Ache se Bhiya Saaf Kijiye ga ", "Issued":"2022-12-20", "Delivery":"2022-12-30"},
 {"Trackingid":1017, "FullName":"Ujjawal Singh", "Mobile":"9608734736", "State":"Odisha", "City":"Bhubhaneshwar", "PinCode":"752054", "Address":"Kendriya Vihar Apartment", "Laundry":"Cotton Cloth", "Cloths":"9", "Weight":"12", "Descriptions":"Please be careful", "Issued":"2022-12-23", "Delivery":"2022-12-31"},
 {"Trackingid":1018, "FullName":"Ujjawal Singh", "Mobile":"9608734736", "State":"Odisha", "City":"Bhubhaneshwar", "PinCode":"752054", "Address":"Kendriya Vihar Apartment", "Laundry":"Cotton Cloth", "Cloths":"9", "Weight":"12", "Descriptions":"Please be careful", "Issued":"2022-12-23", "Delivery":"2022-12-31"},
 {"Trackingid":1019, "FullName":"Ujjawal Singh", "Mobile":"9608734736", "State":"Odisha", "City":"Bhubhaneshwar", "PinCode":"752054", "Address":"Kendriya Vihar Apartment", "Laundry":"Cotton Cloth", "Cloths":"9", "Weight":"12", "Descriptions":"Please be careful", "Issued":"2022-12-23", "Delivery":"2022-12-31"},
 {"Trackingid":1020, "FullName":"Ujjawal Singh", "Mobile":"9608734736", "State":"Odisha", "City":"Bhubhaneshwar", "PinCode":"752054", "Address":"Kendriya Vihar Apartment", "Laundry":"Cotton Cloth", "Cloths":"9", "Weight":"12", "Descriptions":"Please be careful", "Issued":"2022-12-23", "Delivery":"2022-12-31"},
 {"Trackingid":1021, "FullName":"Ujjawal Singh", "Mobile":"9608734736", "State":"Odisha", "City":"Bhubhaneshwar", "PinCode":"752054", "Address":"Kendriya Vihar Apartment", "Laundry":"Cotton Cloth", "Cloths":"9", "Weight":"12", "Descriptions":"Please be careful", "Issued":"2022-12-23", "Delivery":"2022-12-31"},
 {"Trackingid":1022, "FullName":"Ujjawal Singh", "Mobile":"9608734736", "State":"Odisha", "City":"Bhubhaneshwar", "PinCode":"752054", "Address":"Kendriya Vihar Apartment", "Laundry":"Cotton Cloth", "Cloths":"9", "Weight":"12", "Descriptions":"Please be careful", "Issued":"2022-12-23", "Delivery":"2022-12-31"},
 {"Trackingid":1023, "FullName":"Ujjawal Singh", "Mobile":"9608734736", "State":"Odisha", "City":"Bhubhaneshwar", "PinCode":"752054", "Address":"Kendriya Vihar Apartment", "Laundry":"Cotton Cloth", "Cloths":"9", "Weight":"12", "Descriptions":"Please be careful", "Issued":"2022-12-23", "Delivery":"2022-12-31"},
 {"Trackingid":1024, "FullName":"Ujjawal Singh", "Mobile":"9608734736", "State":"Odisha", "City":"Bhubhaneshwar", "PinCode":"752054", "Address":"Kendriya Vihar Apartment", "Laundry":"Cotton Cloth", "Cloths":"9", "Weight":"12", "Descriptions":"Please be careful", "Issued":"2022-12-23", "Delivery":"2022-12-31"},
 {"Trackingid":1025, "FullName":"Ujjawal Singh", "Mobile":"9608734736", "State":"Odisha", "City":"Bhubhaneshwar", "PinCode":"752054", "Address":"Kendriya Vihar Apartment", "Laundry":"Cotton Cloth", "Cloths":"9", "Weight":"12", "Descriptions":"Please be careful", "Issued":"2022-12-23", "Delivery":"2022-12-31"},
 {"Trackingid":1026, "FullName":"Ujjawal Singh", "Mobile":"9608734736", "State":"Odisha", "City":"Bhubhaneshwar", "PinCode":"752054", "Address":"Kendriya Vihar Apartment", "Laundry":"Cotton Cloth", "Cloths":"9", "Weight":"12", "Descriptions":"Please be careful", "Issued":"2022-12-23", "Delivery":"2022-12-31"},
 {"Trackingid":1027, "FullName":"Ujjawal Singh", "Mobile":"9608734736", "State":"Odisha", "City":"Bhubhaneshwar", "PinCode":"752054", "Address":"Kendriya Vihar Apartment", "Laundry":"Cotton Cloth", "Cloths":"9", "Weight":"12", "Descriptions":"Please be careful", "Issued":"2022-12-23", "Delivery":"2022-12-31"},
 {"Trackingid":1028, "FullName":"Ujjawal Singh", "Mobile":"9608734736", "State":"Odisha", "City":"Bhubhaneshwar", "PinCode":"752054", "Address":"Kendriya Vihar Apartment", "Laundry":"Cotton Cloth", "Cloths":"9", "Weight":"12", "Descriptions":"Please be careful", "Issued":"2022-12-23", "Delivery":"2022-12-31"},
 {"Trackingid":1029, "FullName":"Ujjawal Singh", "Mobile":"9608734736", "State":"Odisha", "City":"Bhubhaneshwar", "PinCode":"752054", "Address":"Kendriya Vihar Apartment", "Laundry":"Cotton Cloth", "Cloths":"9", "Weight":"12", "Descriptions":"Please be careful", "Issued":"2022-12-23", "Delivery":"2022-12-31"},
 {"Trackingid":1030, "FullName":"Ujjawal Singh", "Mobile":"9608734736", "State":"Odisha", "City":"Bhubhaneshwar", "PinCode":"752054", "Address":"Kendriya Vihar Apartment", "Laundry":"Cotton Cloth", "Cloths":"9", "Weight":"12", "Descriptions":"Please be careful", "Issued":"2022-12-23", "Delivery":"2022-12-31"},
 {"Trackingid":1031, "FullName":"Ujjawal Singh", "Mobile":"9608734736", "State":"Odisha", "City":"Bhubhaneshwar", "PinCode":"752054", "Address":"Kendriya Vihar Apartment", "Laundry":"Cotton Cloth", "Cloths":"9", "Weight":"12", "Descriptions":"Please be careful", "Issued":"2022-12-23", "Delivery":"2022-12-31"},
 {"Trackingid":1032, "FullName":"Ujjawal Singh", "Mobile":"9608734736", "State":"Odisha", "City":"BHUBANESWAR", "PinCode":"752054", "Address":"Aadinath Apartment A2 Block 4th floor 403 flat no.", "Laundry":"Cotton", "Cloths":"8", "Weight":"2", "Descriptions":"Please Be Careful", "Issued":"2022-12-31", "Delivery":"2023-01-07"},
 {"Trackingid":1033, "FullName":"Ujjawal Singh", "Mobile":"9608734736", "State":"Odisha", "City":"BHUBANESWAR", "PinCode":"752054", "Address":"Aadinath Apartment A2 Block 4th floor 403 flat no.", "Laundry":"Cotton", "Cloths":"8", "Weight":"2", "Descriptions":"Please Be Careful", "Issued":"2022-12-31", "Delivery":"2023-01-07"},
 {"Trackingid":1034, "FullName":"Ujjawal Singh", "Mobile":"9608734736", "State":"Odisha", "City":"Bhubhaneshwar", "PinCode":"752054", "Address":"Kendriya Vihar Apartment", "Laundry":"Cotton Cloth", "Cloths":"6", "Weight":"8", "Descriptions":"Please be careful", "Issued":"2022-12-25", "Delivery":"2023-01-04"},
 {"Trackingid":1035, "FullName":"Ujjawal Singh", "Mobile":"9608734736", "State":"Bihar", "City":"Sasaram", "PinCode":"821115", "Address":"Kendriya Vihar Apartment", "Laundry":"Woolean Cloths", "Cloths":"7", "Weight":"8", "Descriptions":"Ache se Bhiya Saaf Kijiye ga ", "Issued":"2022-12-23", "Delivery":"2023-01-04"},
 {"Trackingid":1036, "FullName":"Ujjawal Singh", "Mobile":"9608734736", "State":"", "City":"BHUBANESWAR", "PinCode":"752054", "Address":"Aadinath Apartment A2 Block 4th floor 403 flat no.", "Laundry":"", "Cloths":"", "Weight":"5", "Descriptions":"Please Be Careful", "Issued":"2022-12-23", "Delivery":"2022-12-24"},
 {"Trackingid":1037, "FullName":"Ujjawal Singh", "Mobile":"1234567891", "State":"", "City":"Sasaram", "PinCode":"821115", "Address":"Gaurakshni", "Laundry":"", "Cloths":"", "Weight":"56", "Descriptions":"Please Be Careful", "Issued":"2022-12-23", "Delivery":"2022-12-31"},
 {"Trackingid":1038, "FullName":"Ujjawal Singh", "Mobile":"9608734736", "State":"", "City":"Sasaram", "PinCode":"821115", "Address":"Gaurakshni Sasaram", "Laundry":"", "Cloths":"", "Weight":"32", "Descriptions":"Please Be Careful", "Issued":"2022-12-23", "Delivery":"2023-01-06"},
 {"Trackingid":1039, "FullName":"Ujjawal Singh", "Mobile":"9608734736", "State":"", "City":"Sasaram", "PinCode":"821115", "Address":"Sasaram", "Laundry":"", "Cloths":"", "Weight":"56", "Descriptions":"Please Be Careful", "Issued":"2022-12-23", "Delivery":"2022-12-31"},
 {"Trackingid":1040, "FullName":"Ujjawal Singh", "Mobile":"9608734736", "State":"", "City":"Bhubaneshwar", "PinCode":"752054", "Address":"Bhubaneshwar", "Laundry":"", "Cloths":"T-Shirt", "Weight":"67", "Descriptions":"Please Be Careful", "Issued":"2023-01-21", "Delivery":"2023-01-28"},
 {"Trackingid":1041, "FullName":"Ujjawal Singh", "Mobile":"9608734736", "State":"", "City":"Bhubaneshwar", "PinCode":"752054", "Address":"Bhubaneshwar", "Laundry":"", "Cloths":"Pajama", "Weight":"67", "Descriptions":"Please Be Careful", "Issued":"2023-01-21", "Delivery":"2023-01-28"},
 {"Trackingid":1042, "FullName":"Ujjawal Singh", "Mobile":"9608734736", "State":"State", "City":"Bhubaneshwar", "PinCode":"752054", "Address":"Bhubaneshwar", "Laundry":"Top Wear", "Cloths":"T-Shirt", "Weight":"67", "Descriptions":"Please Be Careful", "Issued":"2023-01-21", "Delivery":"2023-01-29"},
 {"Trackingid":1043, "FullName":"Ujjawal Singh", "Mobile":"9608734736", "State":"State", "City":"Bhubaneshwar", "PinCode":"752054", "Address":"Bhubaneshwar", "Laundry":"Bottom Wear", "Cloths":"Lower", "Weight":"54", "Descriptions":"Please Be Careful", "Issued":"2023-01-20", "Delivery":"2023-01-27"},
 {"Trackingid":1044, "FullName":"Ujjawal Singh", "Mobile":"9608734736", "State":"State", "City":"Bhubaneshwar", "PinCode":"752054", "Address":"Bhubaneshwar", "Laundry":"Top Wear", "Cloths":"Shirt", "Weight":"45", "Descriptions":"Please Be Careful", "Issued":"2023-01-27", "Delivery":"2023-01-28"},
 {"Trackingid":1045, "FullName":"Ujjawal Singh", "Mobile":"9608734736", "State":"State", "City":"Bhubaneshwar", "PinCode":"752054", "Address":"Bhubaneshwar", "Laundry":"Top Wear", "Cloths":"T-Shirt", "Weight":"56", "Descriptions":"Please Be Careful", "Issued":"2023-01-13", "Delivery":"2023-01-31"},
 {"Trackingid":1046, "FullName":"Ujjawal Singh", "Mobile":"9608734736", "State":"Bihar", "City":"Bhubaneshwar", "PinCode":"752054", "Address":"Bhubaneshwar", "Laundry":"Bottom Wear", "Cloths":"Pajama", "Weight":"67", "Descriptions":"Please Be Careful", "Issued":"2023-01-26", "Delivery":"2023-01-24"},
 {"Trackingid":1047, "FullName":"Ujjawal Singh", "Mobile":"9608734736", "State":"Odisha", "City":"Bhubaneshwar", "PinCode":"752054", "Address":"Bhubaneshwar", "Laundry":"Top Wear", "Cloths":"T-Shirt", "Weight":"89", "Descriptions":"Please Be Careful", "Issued":"2023-01-20", "Delivery":"2023-01-29"},
 {"Trackingid":1048, "FullName":"Ujjawal Singh", "Mobile":"9608734736", "State":"Bihar", "City":"Bhubaneshwar", "PinCode":"752054", "Address":"Bhubaneshwar", "Laundry":"Top Wear", "Cloths":"T-Shirt", "Weight":"78", "Descriptions":"Please Be Careful", "Issued":"2023-01-12", "Delivery":"2023-01-27"},
 {"Trackingid":1049, "FullName":"Ujjawal Singh", "Mobile":"9608734736", "State":"Odisha", "City":"Bhubaneshwar", "PinCode":"752054", "Address":"Bhubaneshwar", "Laundry":"Bottom Wear", "Cloths":"Pajama", "Weight":"34", "Descriptions":"Please Be Careful", "Issued":"2023-01-20", "Delivery":""},
 {"Trackingid":1050, "FullName":"Ujjawal Singh", "Mobile":"9608734736", "State":"Odisha", "City":"Bhubaneshwar", "PinCode":"752054", "Address":"Bhubaneshwar", "Laundry":"Top Wear", "Cloths":"T-Shirt", "Weight":"56", "Descriptions":"Please Be Careful", "Issued":"2023-01-20", "Delivery":""}]